{
    "links": {
        "self": "http://www.neowsapp.com/rest/v1/neo/3797852?api_key=iIulBulltgU6a56xZRHN4H3l9WmuAYTsLGpBGhQ2"
    },
    "id": "3797852",
    "neo_reference_id": "3797852",
    "name": "(2018 BB3)",
    "designation": "2018 BB3",
    "nasa_jpl_url": "http://ssd.jpl.nasa.gov/sbdb.cgi?sstr=3797852",
    "absolute_magnitude_h": 25.7,
    "estimated_diameter": {
        "kilometers": {
            "estimated_diameter_min": 0.0192555078,
            "estimated_diameter_max": 0.0430566244
        },
        "meters": {
            "estimated_diameter_min": 19.2555078188,
            "estimated_diameter_max": 43.0566244241
        },
        "miles": {
            "estimated_diameter_min": 0.0119648141,
            "estimated_diameter_max": 0.0267541378
        },
        "feet": {
            "estimated_diameter_min": 63.1742402722,
            "estimated_diameter_max": 141.2618956756
        }
    },
    "is_potentially_hazardous_asteroid": false,
    "close_approach_data": [
        {
            "close_approach_date": "2012-08-15",
            "close_approach_date_full": "2012-Aug-15 13:02",
            "epoch_date_close_approach": 1345035720000,
            "relative_velocity": {
                "kilometers_per_second": "14.4926318433",
                "kilometers_per_hour": "52173.474635925",
                "miles_per_hour": "32418.5681703057"
            },
            "miss_distance": {
                "astronomical": "0.4337158284",
                "lunar": "168.7154572476",
                "kilometers": "64882964.113925508",
                "miles": "40316404.4038796904"
            },
            "orbiting_body": "Earth"
        },
        {
            "close_approach_date": "2018-01-17",
            "close_approach_date_full": "2018-Jan-17 02:38",
            "epoch_date_close_approach": 1516156680000,
            "relative_velocity": {
                "kilometers_per_second": "21.7021816754",
                "kilometers_per_hour": "78127.8540314566",
                "miles_per_hour": "48545.6101897125"
            },
            "miss_distance": {
                "astronomical": "0.0122232865",
                "lunar": "4.7548584485",
                "kilometers": "1828577.624799755",
                "miles": "1136225.448576419"
            },
            "orbiting_body": "Earth"
        }
    ],
    "orbital_data": {
        "orbit_id": "3",
        "orbit_determination_date": "2018-01-23 06:57:02",
        "first_observation_date": "2018-01-18",
        "last_observation_date": "2018-01-23",
        "data_arc_in_days": 5,
        "observations_used": 50,
        "orbit_uncertainty": "8",
        "minimum_orbit_intersection": ".00889471",
        "jupiter_tisserand_invariant": "3.636",
        "epoch_osculation": "2458137.5",
        "eccentricity": ".6087447234981984",
        "semi_major_axis": "1.862751493484951",
        "inclination": "27.49055822349412",
        "ascending_node_longitude": "117.8467046169324",
        "orbital_period": "928.6045499441767",
        "perihelion_distance": ".7288113506375982",
        "perihelion_argument": "286.8127698283732",
        "aphelion_distance": "2.996691636332303",
        "perihelion_time": "2458090.668196566258",
        "mean_anomaly": "18.15568234848799",
        "mean_motion": ".3876784795224635",
        "equinox": "J2000",
        "orbit_class": {
            "orbit_class_type": "APO",
            "orbit_class_description": "Near-Earth asteroid orbits which cross the Earth’s orbit similar to that of 1862 Apollo",
            "orbit_class_range": "a (semi-major axis) > 1.0 AU; q (perihelion) < 1.017 AU"
        }
    },
    "is_sentry_object": false
}